stk.v.11.0

# WrittenBy    STK_v11.7.1

BEGIN Ephemeris

    NumberOfEphemerisPoints		 2565

    ScenarioEpoch		 16 Jul 2020 03:40:48.000000

# Epoch in JDate format: 2459046.65333333333333
# Epoch in YYDDD format:   20198.15333333333333


    InterpolationMethod		 Lagrange

    InterpolationSamplesM1		 7

    CentralBody		 Earth

    CoordinateSystem		 ICRF

# Time of first point: 16 Jul 2020 03:40:48.000000000 UTCG = 2459046.65333333333333 JDate = 20198.15333333333333 YYDDD

    EphemerisTimePosVel		

 8.9085820000000040e+03 -7.3729977387157665e+05  2.7053512438335973e+06 -5.9254455967428703e+06  4.1431782629282643e+03 -5.7974517041447161e+03 -3.1593752410478651e+03
 8.9689110000000019e+03 -4.8567071457016037e+05  2.3489662941617607e+06 -6.1006601933213947e+06  4.1951501238800183e+03 -6.0122057283796557e+03 -2.6467985465976381e+03
 9.0314130000000023e+03 -2.2237073605096462e+05  1.9670803965572254e+06 -6.2491201893620165e+06  4.2263168405099477e+03 -6.2021416667058120e+03 -2.1016118422227510e+03
 9.0859060000000045e+03  8.2382223837524652e+03  1.6252339856756697e+06 -6.3504701173246149e+06  4.2345367608175347e+03 -6.3399183533331325e+03 -1.6168470320445567e+03
 9.1421120000000028e+03  2.4605018744088482e+05  1.2655460471465862e+06 -6.4271269902737942e+06  4.2244841424445058e+03 -6.4542528876155357e+03 -1.1098658768454907e+03
 9.1975860000000048e+03  4.7969785719832714e+05  9.0502303050914011e+05 -6.4747010223195329e+06  4.1961593815145861e+03 -6.5389647493393304e+03 -6.0470815083247578e+02
 9.2475090000000073e+03  6.8821982280369266e+05  5.7718344426373462e+05 -6.4934912323596058e+06  4.1551441691096425e+03 -6.5910064998140679e+03 -1.4784687197799371e+02
 9.2934080000000049e+03  8.7782332093915669e+05  2.7395757998601015e+05 -6.4906262248139000e+06  4.1045866477486579e+03 -6.6184750896497526e+03  2.7265172448911716e+02
 9.3419740000000038e+03  1.0756009837448029e+06 -4.7751621212197002e+04 -6.4665961079333369e+06  4.0378584674518393e+03 -6.6261925151620189e+03  7.1665781384892148e+02
 9.3901870000000035e+03  1.2684146397764115e+06 -3.6696796668402600e+05 -6.4214627910124790e+06  3.9583721359104920e+03 -6.6121203126861092e+03  1.1550783505519057e+03
 9.4336930000000011e+03  1.4388634098797056e+06 -6.5401880140333157e+05 -6.3626606341263540e+06  3.8755335006231494e+03 -6.5808717122063363e+03  1.5474974503273968e+03
 9.4800680000000011e+03  1.6163252068461839e+06 -9.5806390295230830e+05 -6.2812811920975596e+06  3.7758743905475358e+03 -6.5282796588507599e+03  1.9612463810052445e+03
 9.5279870000000028e+03  1.7945544476206983e+06 -1.2691772570509282e+06 -6.1771781574864751e+06  3.6608923087718326e+03 -6.4531917916221573e+03  2.3825464276436492e+03
 9.5766090000000022e+03  1.9694724966363667e+06 -1.5806603665449359e+06 -6.0510973948733946e+06  3.5321273785240523e+03 -6.3556889666789839e+03  2.8021815790210312e+03
 9.6285720000000019e+03  2.1491564908655258e+06 -1.9077100490275642e+06 -5.8940539094073484e+06  3.3815227536314674e+03 -6.2281125304574089e+03  3.2403444705636339e+03
 9.6825750000000025e+03  2.3272356724369279e+06 -2.2399032341439156e+06 -5.7070580991367539e+06  3.2113748808830042e+03 -6.0704424880372417e+03  3.6826792864812041e+03
 9.7454950000000044e+03  2.5226269839720423e+06 -2.6152626237294590e+06 -5.4596175291885873e+06  2.9965168716768403e+03 -5.8553300047438497e+03  4.1789208922448779e+03
 9.8076830000000064e+03  2.7019410123393564e+06 -2.9719466584714451e+06 -5.1850731100836899e+06  2.7676927577590614e+03 -5.6106063811124113e+03  4.6465794985576240e+03
 9.8652040000000070e+03  2.8547256284860247e+06 -3.2875023068716200e+06 -4.9058930862275129e+06  2.5425418835783057e+03 -5.3569636244301155e+03  5.0567210257816150e+03
 9.9208210000000054e+03  2.9898145054111900e+06 -3.5780643460657112e+06 -4.6141412398989527e+06  2.3135107754741639e+03 -5.0879074217933994e+03  5.4309361087837051e+03
 9.9782410000000036e+03  3.1156116007798002e+06 -3.8616777461469979e+06 -4.2917927708330303e+06  2.0664294591534426e+03 -4.7868128415522133e+03  5.7924604117785420e+03
 1.0039058000000003e+04  3.2330595759551511e+06 -4.1424834282710715e+06 -3.9286041607350553e+06  1.7942211047197054e+03 -4.4436075963606090e+03  6.1460042908398291e+03
 1.0097675000000005e+04  3.3303197952796691e+06 -4.3927154033095827e+06 -3.5590957062943564e+06  1.5229271093540237e+03 -4.0907954157466415e+03  6.4564552926408760e+03
 1.0157968000000003e+04  3.4135315911911624e+06 -4.6278974090681141e+06 -3.1610044811656075e+06  1.2361304937243497e+03 -3.7071618505769661e+03  6.7431185229093417e+03
 1.0215928000000002e+04  3.4770380476833791e+06 -4.8316358999048062e+06 -2.7629747836478502e+06  9.5438449713035686e+02 -3.3203640666011256e+03  6.9860826911887671e+03
 1.0277270000000002e+04  3.5263065726795541e+06 -5.0223163273550896e+06 -2.3274630217887838e+06  6.5125295066705064e+02 -2.8938369148025913e+03  7.2070855709493817e+03
 1.0337229000000001e+04  3.5563835259619914e+06 -5.1829503161768923e+06 -1.8897821534204897e+06  3.5156877987383081e+02 -2.4620189873383265e+03  7.3860657510630581e+03
 1.0391651000000000e+04  3.5680754460482700e+06 -5.3060197025146000e+06 -1.4841395531849596e+06  7.7955622393454689e+01 -2.0591834479032004e+03  7.5160300708485793e+03
 1.0446950999999999e+04  3.5646884783744887e+06 -5.4083675995672513e+06 -1.0655926048234622e+06 -2.0040588151869468e+02 -1.6410368974375717e+03  7.6158318896106548e+03
 1.0499181999999999e+04  3.5473697107023974e+06 -5.4836202449348047e+06 -6.6600982383482438e+05 -4.6254013780229457e+02 -1.2395731783810838e+03  7.6798434360190449e+03
 1.0554062000000000e+04  3.5144695510716289e+06 -5.5399534028983451e+06 -2.4342069794163288e+05 -7.3601704282572530e+02 -8.1266301191182970e+02  7.7151644960236263e+03
 1.0607936000000000e+04  3.4676520867790831e+06 -5.5723671488546720e+06  1.7244116708612652e+05 -1.0014200488069716e+03 -3.9025187336027614e+02  7.7178652653458457e+03
 1.0662788000000002e+04  3.4054056338092908e+06 -5.5819379785108641e+06  5.9511413191492204e+05 -1.2673843549043077e+03  4.1393467162872184e+01  7.6880646890077915e+03
 1.0712947000000002e+04  3.3358330197215811e+06 -5.5699631619525747e+06  9.7945220198218070e+05 -1.5058705186991263e+03  4.3592690225068662e+02  7.6321818314984494e+03
 1.0763534000000001e+04  3.2536851720834258e+06 -5.5378784820205895e+06  1.3635364045503861e+06 -1.7409285130911051e+03  8.3217059869912646e+02  7.5483361179149742e+03
 1.0816944000000001e+04  3.1542251476812717e+06 -5.4823316370189702e+06  1.7636728494226034e+06 -1.9822091879375821e+03  1.2471289806414013e+03  7.4302109012197025e+03
 1.0870773000000003e+04  3.0411600206908202e+06 -5.4040567872743495e+06  2.1597498142280071e+06 -2.2172491537035166e+03  1.6601356876357663e+03  7.2808917844671578e+03
 1.0919658000000005e+04  2.9277130800561421e+06 -5.3138530588950478e+06  2.5118300611938941e+06 -2.4228179008556258e+03  2.0292540420553303e+03  7.1194929447869508e+03
 1.0968478000000005e+04  2.8045853561656894e+06 -5.2059253472010447e+06  2.8549813585519828e+06 -2.6199109750226612e+03  2.3909435726776028e+03  6.9343906741069322e+03
 1.1018136000000004e+04  2.6696945970652280e+06 -5.0782315026551513e+06  3.1941602132061888e+06 -2.8112961099917839e+03  2.7504784322938840e+03  6.7222516086007654e+03
 1.1069254000000003e+04  2.5211679534923793e+06 -4.9283850974208694e+06  3.5316880571037671e+06 -2.9980396877934254e+03  3.1104661953728628e+03  6.4795368187585200e+03
 1.1132323000000002e+04  2.3252111413628426e+06 -4.7186133637291873e+06  3.9300579988324074e+06 -3.2130909312913132e+03  3.5385309764895183e+03  6.1474122283246261e+03
 1.1191031000000004e+04  2.1310978808598258e+06 -4.4996133952380102e+06  4.2811207028985089e+06 -3.3970635138892571e+03  3.9190786012669196e+03  5.8073907988084420e+03
 1.1252166000000007e+04  1.9180060240825363e+06 -4.2484193198633511e+06  4.6245718080095984e+06 -3.5710617163770867e+03  4.2949788882258372e+03  5.4235328246652844e+03
 1.1311199000000006e+04  1.7026750723100230e+06 -3.9846874169744374e+06  4.9331288323254604e+06 -3.7212244168624770e+03  4.6364170709382543e+03  5.0259331205531562e+03
 1.1376966000000006e+04  1.4530217603412899e+06 -3.6679808464441518e+06  5.2483174524445552e+06 -3.8669757537650471e+03  4.9898493364244450e+03  4.5542488012635540e+03
 1.1439308000000006e+04  1.2082052753728621e+06 -3.3471890297956280e+06  5.5176305320630725e+06 -3.9834290507406413e+03  5.2968057569825778e+03  4.0817074221991029e+03
 1.1502156000000004e+04  9.5474021841160732e+05 -3.0053350034342515e+06  5.7585955517044244e+06 -4.0788117797400246e+03  5.5769096480287617e+03  3.5829587903400952e+03
 1.1555424000000005e+04  7.3571522069520724e+05 -2.7024847030380405e+06  5.9378387906916877e+06 -4.1419702911039840e+03  5.7901261925578128e+03  3.1446892909006242e+03
 1.1609044000000004e+04  5.1228955329407507e+05 -2.3867826758835171e+06  6.0943452462318884e+06 -4.1888979909993750e+03  5.9814436132545852e+03  2.6909774789001531e+03
 1.1663289000000006e+04  2.8416270102423744e+05 -2.0576226432375831e+06  6.2276165128461365e+06 -4.2191914918218363e+03  6.1504307061173567e+03  2.2210237960234726e+03
 1.1714753000000006e+04  6.6633222965492692e+04 -1.7374757565509644e+06  6.3302607487453166e+06 -4.2318491570707101e+03  6.2873042847387642e+03  1.7667220648127161e+03
 1.1758484000000006e+04 -1.1843643312226917e+05 -1.4603213001797190e+06  6.3989821621448882e+06 -4.2302635649384783e+03  6.3852869203637465e+03  1.3754951626825737e+03
 1.1802748000000005e+04 -3.0543668839678471e+05 -1.1758085083093001e+06  6.4510322042894494e+06 -4.2171195467673288e+03  6.4670400225301501e+03  9.7576858941357705e+02
 1.1852263000000004e+04 -5.1360349812765623e+05 -8.5375763508421683e+05  6.4882106271980284e+06 -4.1887057364265465e+03  6.5374509637217616e+03  5.2550426494030410e+02
 1.1903363000000007e+04 -7.2657675804549700e+05 -5.1833647906661918e+05  6.5031477986623459e+06 -4.1443007834908412e+03  6.5865763532074034e+03  5.8939053826449708e+01
END Ephemeris
